[{"OBJECT_NAME":"STARLINK-3964","OBJECT_ID":"2022-051D","EPOCH":"2026-03-09T10:35:40.996608","MEAN_MOTION":15.08840402,"ECCENTRICITY":0.00010036,"INCLINATION":53.2167,"RA_OF_ASC_NODE":130.2356,"ARG_OF_PERICENTER":97.3943,"MEAN_ANOMALY":262.7163,"EPHEMERIS_TYPE":0,"CLASSIFICATION_TYPE":"U","NORAD_CAT_ID":52536,"ELEMENT_SET_NO":999,"REV_AT_EPOCH":21140,"BSTAR":-6.265822e-6,"MEAN_MOTION_DOT":-3.87e-6,"MEAN_MOTION_DDOT":0},{"OBJECT_NAME":"CZ-6A DEB","OBJECT_ID":"2022-151ZP","EPOCH":"2026-03-09T04:30:54.238464","MEAN_MOTION":15.16398418,"ECCENTRICITY":0.00295026,"INCLINATION":98.6165,"RA_OF_ASC_NODE":143.0832,"ARG_OF_PERICENTER":204.3397,"MEAN_ANOMALY":155.6441,"EPHEMERIS_TYPE":0,"CLASSIFICATION_TYPE":"U","NORAD_CAT_ID":55867,"ELEMENT_SET_NO":999,"REV_AT_EPOCH":16441,"BSTAR":0.0090941605,"MEAN_MOTION_DOT":0.00182799,"MEAN_MOTION_DDOT":0}]
